IRIDIUM 136             
1 42962U 17061H   23201.81854627  .00000385  00000+0  13058-3 0  9992
2 42962  86.3971 109.2648 0002044  78.4565 281.6860 14.34215669302562
